2 61064  53.1593 244.9084 0000790  85.2610 320.9993 15.30187832    18
STARLINK-32321          
1 61065C 24164R   26113.12479167  .00009446  00000+0  31853-3 0  1138
2 61065  53.1598 244.8426 0001193  99.0919  97.7785 15.30170216    12
STARLINK-32381          
1 61066C 24164S   26113.15326389  .00032729  00000+0  11032-2 0  1135
2 61066  53.1588 244.8201 0000694  80.5025 215.1074 15.30172194    15
STARLINK-32385          
1 61068C 24164U   26113.16368056  .00004877  00000+0  16436-3 0  1132
2 61068  53.1597 244.6265 0000862  89.2301 339.3956 15.30193378    10
STARLINK-32380          
1 61069C 24164V   26113.13868056 -.00025154  00000+0 -84778-3 0  1132
2 61069  53.1597 244.7074 0001202  90.1568 218.1346 15.30204520    14
STARLINK-32375          
1 61070C 24164W   26113.09145833  .00004045  00000+0  13642-3 0  1136
2 61070  53.1593 245.0260 0001355  84.3376 271.2525 15.30169509    10
STARLINK-11209 [DTC]    
1 61200C 24171A   26113.10395833  .00058143  00000+0  47875-3 0  1131
2 61200  53.1569 317.5130 0000896  85.8816 212.1393 15.69690305    15
STARLINK-11257 [DTC]    
1 61201C 24171B   26113.09145833  .00059566  00000+0  49042-3 0  1131
2 61201  53.1570 317.5118 0001104  57.7478 197.3435 15.69691437    17
STARLINK-11309 [DTC]    
1 61202C 24171C   26113.09354167  .00061962  00000+0  51017-3 0  1132
2 61202  53.1572 317.4442 0000944  51.8409 242.7691 15.69689844    17
STARLINK-11292 [DTC]    
1 61203C 24171D   26113.10465278  .00059213  00000+0  48753-3 0  1130
2 61203  53.1572 317.3321 0001027  71.1031 314.0613 15.69690991    14
STARLINK-11302 [DTC]    
1 61204C 24171E   26113.09145833  .00066071  00000+0  54429-3 0  1138
2 61204  53.1572 317.3399 0000994  67.6954 270.6152 15.69675111    18
STARLINK-11277 [DTC]    
1 61205C 24171F   26113.11923611  .00043145  00000+0  35594-3 0  1139
2 61205  53.1570 317.0892 0000928  80.6458 110.1763 15.69651735    15
STARLINK-11279 [DTC]    
1 61206C 24171G   26113.11368056  .00046056  00000+0  37933-3 0  1139
2 61206  53.1566 317.0600 0001064  69.8054 117.3573 15.69689469    14
STARLINK-11091 [DTC]    
1 61207C 24171H   26113.17687500 -.00008151  00000+0 -67120-4 0  1132
2 61207  53.1573 316.8617 0000891  89.6339  39.3589 15.69721743    13
STARLINK-11291 [DTC]    
1 61208C 24171J   26113.10187500  .00050490  00000+0  41592-3 0  1136
2 61208  53.1566 317.0607 0001052  77.1095  71.0374 15.69683315    16
STARLINK-11304 [DTC]    
1 61209C 24171K   26113.11020833  .00044293  00000+0  36460-3 0  1135
2 61209  53.1564 316.9623 0000989  83.4554 139.5389 15.69704577    19
STARLINK-11307 [DTC]    
1 61210C 24171L   26113.15951389  .00009330  00000+0  76835-4 0  1134
2 61210  53.1565 317.3968 0000950  71.7855  97.1627 15.69709510    17
STARLINK-11298 [DTC]    
1 61211C 24171M   26113.12895833  .00044256  00000+0  36453-3 0  1130
2 61211  53.1569 317.4907 0001042  68.4280 315.4981 15.69689409    17
STARLINK-11310 [DTC]    
1 61212C 24171N   26113.08868056  .00058678  00000+0  48334-3 0  1137
2 61212  53.1567 317.6330 0000979  81.5409 102.3789 15.69680946    11
STARLINK-32386          
1 61213C 24171P   26113.10256944 -.00044772  00000+0 -15071-2 0  1131
2 61213  53.1576 115.8026 0001262  82.4605 261.5580 15.30253000    18
STARLINK-32392          
1 61214C 24171Q   26113.09631944 -.00017675  00000+0 -59555-3 0  1135
2 61214  53.1591 116.0266 0001370  86.6638 124.0204 15.30208211    17
STARLINK-32436          
1 61215C 24171R   26113.12201389 -.00035798  00000+0 -12061-2 0  1132
2 61215  53.1577 115.7247 0001466  75.0640  10.3073 15.30219988    12
STARLINK-32425          
1 61216C 24171S   26113.11784722 -.00017845  00000+0 -60154-3 0  1139
2 61216  53.1593 116.1786 0001269  80.6058 120.7930 15.30194615    17
STARLINK-32342          
1 61217C 24171T   26113.11229167 -.00016185  00000+0 -54536-3 0  1130
2 61217  53.1600 116.0882 0001170  83.2022 145.6006 15.30207830    18
STARLINK-32423          
1 61218C 24171U   26113.15812500 -.00030477  00000+0 -10273-2 0  1133
2 61218  53.1599 115.8992 0001127  86.8610  23.0555 15.30204984    14
STARLINK-32248          
1 61219C 24171V   26113.08173611 -.00007908  00000+0 -26644-3 0  1132
2 61219  53.1580 116.4442 0001191  91.3431 218.6603 15.30205089    18
STARLINK-11300 [DTC]    
1 61243C 24175A   26113.11854167  .00038470  00000+0  31693-3 0  1135
2 61243  53.1565 197.2721 0001117 102.5187 278.1040 15.69687454    14
STARLINK-11276 [DTC]    
1 61244C 24175B   26113.11784722  .00042824  00000+0  35281-3 0  1130
2 61244  53.1570 197.2183 0001081  92.3909 312.0433 15.69684775    18
STARLINK-11280 [DTC]    
1 61245C 24175C   26113.10048611  .00060535  00000+0  49868-3 0  1135
2 61245  53.1570 197.1982 0001134  84.8619 276.8599 15.69677569    11
STARLINK-11308 [DTC]    
1 61246C 24175D   26113.09006944  .00049272  00000+0  40588-3 0  1132
2 61246  53.1570 197.2985 0001070  96.6818 178.4147 15.69684433    11
STARLINK-11305 [DTC]    
1 61247C 24175E   26113.12548611  .00047401  00000+0  39044-3 0  1136
2 61247  53.1568 197.0102 0001181  80.7046  90.1192 15.69686238    13
STARLINK-11317 [DTC]    
1 61248C 24175F   26113.11993056  .00056420  00000+0  46479-3 0  1134
2 61248  53.1566 196.9803 0001095  87.8041  79.3518 15.69678949    16
STARLINK-11293 [DTC]    
1 61249C 24175G   26113.14006944  .00061602  00000+0  50732-3 0  1134
2 61249  53.1565 196.8241 0001276  74.8365 233.9208 15.69683972    13
STARLINK-11319 [DTC]    
1 61251C 24175J   26113.10673611  .00050306  00000+0  41440-3 0  1139
2 61251  53.1566 197.6086 0001136  76.5964  98.5872 15.69683658    15
STARLINK-11318 [DTC]    
1 61252C 24175K   26113.11368056  .00056507  00000+0  46540-3 0  1130
2 61252  53.1564 197.5172 0001216  82.6777 159.5104 15.69684532    16
STARLINK-11311 [DTC]    
1 61253C 24175L   26113.13104167  .00099441  00000+0  81901-3 0  1138
2 61253  53.1563 197.3744 0001213  93.7660 274.2809 15.69663049    17
STARLINK-11306 [DTC]    
1 61254C 24175M   26113.08798611  .00026720  00000+0  22014-3 0  1136
2 61254  53.1562 197.5296 0001102  88.4969  63.8912 15.69691229    19
STARLINK-11313 [DTC]    
1 61255C 24175N   26113.12131944  .00069006  00000+0  56837-3 0  1136
2 61255  53.1563 197.3077 0001159 114.6585 253.9338 15.69677479    19
STARLINK-32431          
1 61256C 24175P   26113.10187500  .00054207  00000+0  18266-2 0  1134
2 61256  53.1611 347.7502 0001293  81.8759 265.7485 15.30171150    12
STARLINK-32432          
1 61257C 24175Q   26113.13312500  .00052927  00000+0  17834-2 0  1135
2 61257  53.1610 347.6408 0001520  63.0880  79.3293 15.30172220    11
STARLINK-32382          
1 61258C 24175R   26113.15604167  .00036740  00000+0  12381-2 0  1138
2 61258  53.1609 347.5682 0001294  77.7238 173.5587 15.30176913    16
STARLINK-32435          
1 61259C 24175S   26113.10534722  .00062310  00000+0  20975-2 0  1133
2 61259  53.1611 347.8874 0001230  67.7664 223.3092 15.30199287    12
STARLINK-32474          
1 61260C 24175T   26113.14006944  .00046114  00000+0  15535-2 0  1139
2 61260  53.1602 347.5024 0001355  78.8847 154.1459 15.30183224    14
STARLINK-32447          
1 61261C 24175U   26113.17826389  .00029156  00000+0  98243-3 0  1131
2 61261  53.1606 347.3595 0001413  75.8978 350.2117 15.30184226    10
STARLINK-32446          
1 61262C 24175V   26113.14770833  .00045648  00000+0  15382-2 0  1137
2 61262  53.1611 347.6547 0001295  88.6751  93.4046 15.30175246    15
STARLINK-32174          
1 61509C 24183A   26113.11854167 -.00039507  00000+0 -13316-2 0  1134
2 61509  53.1580 283.2754 0001191  87.7936 320.8910 15.30208883    10
STARLINK-32139          
1 61510C 24183B   26113.12826389 -.00022841  00000+0 -77016-3 0  1133
2 61510  53.1581 296.0963 0001196  89.1753 335.1626 15.30189347    11
STARLINK-32140          
1 61511C 24183C   26113.16020833 -.00043449  00000+0 -14644-2 0  1132
2 61511  53.1598 295.7618 0001276  83.5739 249.8735 15.30212966    10
STARLINK-32201          
1 61512C 24183D   26113.09909722 -.00028999  00000+0 -97795-3 0  1130
2 61512  53.1572 283.3215 0001199  82.9617 241.8646 15.30186630    12
STARLINK-32030          
1 61513C 24183E   26113.14284722 -.00028903  00000+0 -97409-3 0  1130
2 61513  53.1579 296.0974 0001176  85.3239  24.4663 15.30207665    11
STARLINK-31837          
1 61514C 24183F   26113.09631944 -.00021380  00000+0 -72052-3 0  1136
2 61514  53.1590 296.1627 0001231  78.8580 204.2896 15.30205893    16
STARLINK-32136          
1 61515C 24183G   26113.11229167 -.00023936  00000+0 -80663-3 0  1136
2 61515  53.1573 296.3428 0001073  84.3023 164.6725 15.30207159    14
STARLINK-32047          
1 61516C 24183H   26113.11576389 -.00020793  00000+0 -70087-3 0  1135
2 61516  53.1594 296.0374 0001279  85.4856 322.2924 15.30198288    14
STARLINK-31756          
1 61517C 24183J   26113.16993056 -.00026941  00000+0 -90826-3 0  1139
2 61517  53.1584 296.1876 0001316  88.6566  30.8697 15.30196413    14
STARLINK-32172          
1 61518C 24183K   26113.08729167 -.00014581  00000+0 -49140-3 0  1131
2 61518  53.1598 296.1344 0001241  84.6131 183.6827 15.30200134    19
STARLINK-32338          
1 61519C 24183L   26113.14076389  .00505600  00000+0  16990-1 0  1130
2 61519  53.1599 295.8049 0001186  74.1251 169.6430 15.30034986    18
STARLINK-32306          
1 61520C 24183M   26113.12548611 -.00038752  00000+0 -13057-2 0  1135
2 61520  53.1599 295.8411 0001346  85.1642  91.8007 15.30220346    10
STARLINK-32297          
1 61521C 24183N   26113.12756944 -.00024101  00000+0 -81234-3 0  1132
2 61521  53.1594 295.7967 0001459  70.5045 135.2920 15.30201770    18
STARLINK-32260          
1 61522C 24183P   26113.15951389 -.00034269  00000+0 -11550-2 0  1135
2 61522  53.1591 295.6129 0001280  87.8953 311.5345 15.30207517    11
STARLINK-32305          
1 61523C 24183Q   26113.16854167 -.00039181  00000+0 -13206-2 0  1131
2 61523  53.1580 295.9305 0000932  85.2403 183.6362 15.30209875    10
